start=new Date('2023-01-22T00:00:00.000Z').valueOf();
sats=[{"ELEMENT_SET_NO":"999","NORAD_CAT_ID":"49148","PERIOD":"96.106","ARG_OF_PERICENTER":"273.2124","SITE":"AFWTR","REV_AT_EPOCH":"7634","EPOCH":"2023-01-21T09:37:54.407424","MEAN_MOTION_DOT":"0.00008012","DECAY_DATE":null,"INCLINATION":"70.0033","RCS_SIZE":"LARGE","TLE_LINE1":"1 49148U 21082U   23021.40132416  .00008012  00000-0  67826-3 0  9991","MEAN_MOTION_DDOT":"0.0000000000000","OBJECT_NAME":"STARLINK-3048","TIME_SYSTEM":"UTC","RA_OF_ASC_NODE":"277.0779","PERIAPSIS":"570.442","BSTAR":"0.00067826000000","MEAN_MOTION":"14.98343444","TLE_LINE2":"2 49148  70.0033 277.0779 0002265 273.2124  86.8775 14.98343444 76341","OBJECT_ID":"2021-082U","MEAN_ANOMALY":"86.8775","SEMIMAJOR_AXIS":"6950.151","CLASSIFICATION_TYPE":"U","ECCENTRICITY":"0.00022650","FILE":"3756844","GP_ID":"223570414","COUNTRY_CODE":"US","OBJECT_TYPE":"PAYLOAD","MEAN_ELEMENT_THEORY":"SGP4","CENTER_NAME":"EARTH","EPHEMERIS_TYPE":"0","APOAPSIS":"573.591","LAUNCH_DATE":"2021-09-14","REF_FRAME":"TEME"},{"SITE":"AFWTR","REV_AT_EPOCH":"7594","EPOCH":"2023-01-21T12:00:11.894688","NORAD_CAT_ID":"49149","ELEMENT_SET_NO":"999","PERIOD":"96.106","ARG_OF_PERICENTER":"261.6697","MEAN_MOTION_DDOT":"0.0000000000000","OBJECT_NAME":"STARLINK-3053","RA_OF_ASC_NODE":"296.8465","TIME_SYSTEM":"UTC","PERIAPSIS":"570.037","BSTAR":"0.00052792000000","MEAN_MOTION":"14.98339072","MEAN_MOTION_DOT":"0.00006213","DECAY_DATE":null,"INCLINATION":"70.0016","RCS_SIZE":"LARGE","TLE_LINE1":"1 49149U 21082V   23021.50013767  .00006213  00000-0  52792-3 0  9997","ECCENTRICITY":"0.00028680","FILE":"3757072","TLE_LINE2":"2 49149  70.0016 296.8465 0002868 261.6697  98.4137 14.98339072 75947","OBJECT_ID":"2021-082V","MEAN_ANOMALY":"98.4137","SEMIMAJOR_AXIS":"6950.165","CLASSIFICATION_TYPE":"U","OBJECT_TYPE":"PAYLOAD","MEAN_ELEMENT_THEORY":"SGP4","CENTER_NAME":"EARTH","EPHEMERIS_TYPE":"0","APOAPSIS":"574.023","LAUNCH_DATE":"2021-09-14","REF_FRAME":"TEME","COUNTRY_CODE":"US","GP_ID":"223575715"},{"COUNTRY_CODE":"US","GP_ID":"223557345","OBJECT_TYPE":"PAYLOAD","MEAN_ELEMENT_THEORY":"SGP4","CENTER_NAME":"EARTH","EPHEMERIS_TYPE":"0","APOAPSIS":"573.931","REF_FRAME":"TEME","LAUNCH_DATE":"2021-09-14","TLE_LINE2":"2 49150  70.0022 297.6997 0002767 273.8413  86.2429 14.98346219 75898","MEAN_ANOMALY":"86.2429","OBJECT_ID":"2021-082W","SEMIMAJOR_AXIS":"6950.143","CLASSIFICATION_TYPE":"U","ECCENTRICITY":"0.00027670","FILE":"3756295","MEAN_MOTION_DOT":"0.00012389","DECAY_DATE":null,"INCLINATION":"70.0022","RCS_SIZE":"LARGE","TLE_LINE1":"1 49150U 21082W   23021.16156982  .00012389  00000-0  10438-2 0  9999","MEAN_MOTION_DDOT":"0.0000000000000","OBJECT_NAME":"STARLINK-3104","TIME_SYSTEM":"UTC","RA_OF_ASC_NODE":"297.6997","PERIAPSIS":"570.085","BSTAR":"0.00104380000000","MEAN_MOTION":"14.98346219","NORAD_CAT_ID":"49150","ELEMENT_SET_NO":"999","PERIOD":"96.106","ARG_OF_PERICENTER":"273.8413","SITE":"AFWTR","REV_AT_EPOCH":"7589","EPOCH":"2023-01-21T03:52:39.632448"},{"OBJECT_TYPE":"PAYLOAD","MEAN_ELEMENT_THEORY":"SGP4","CENTER_NAME":"EARTH","EPHEMERIS_TYPE":"0","APOAPSIS":"573.911","REF_FRAME":"TEME","LAUNCH_DATE":"2021-09-14","COUNTRY_CODE":"US","GP_ID":"223570442","ECCENTRICITY":"0.00027020","FILE":"3756846","TLE_LINE2":"2 49151  70.0012 257.1414 0002702 274.5497  85.5353 14.98337982 76911","MEAN_ANOMALY":"85.5353","OBJECT_ID":"2021-082X","SEMIMAJOR_AXIS":"6950.168","CLASSIFICATION_TYPE":"U","MEAN_MOTION_DDOT":"0.0000000000000","OBJECT_NAME":"STARLINK-3102","RA_OF_ASC_NODE":"257.1414","TIME_SYSTEM":"UTC","PERIAPSIS":"570.155","BSTAR":"0.00047686000000","MEAN_MOTION":"14.98337982","MEAN_MOTION_DOT":"0.00005602","DECAY_DATE":null,"INCLINATION":"70.0012","RCS_SIZE":"LARGE","TLE_LINE1":"1 49151U 21082X   23021.37880778  .00005602  00000-0  47686-3 0  9996","SITE":"AFWTR","REV_AT_EPOCH":"7691","EPOCH":"2023-01-21T09:05:28.992192","ELEMENT_SET_NO":"999","NORAD_CAT_ID":"49151","PERIOD":"96.106","ARG_OF_PERICENTER":"274.5497"},{"SITE":"AFWTR","REV_AT_EPOCH":"7688","EPOCH":"2023-01-21T16:31:48.872640","NORAD_CAT_ID":"49152","ELEMENT_SET_NO":"999","PERIOD":"96.106","ARG_OF_PERICENTER":"276.7307","MEAN_MOTION_DDOT":"0.0000000000000","OBJECT_NAME":"STARLINK-3081","TIME_SYSTEM":"UTC","RA_OF_ASC_NODE":"256.3523","PERIAPSIS":"570.030","BSTAR":"0.00044830000000","MEAN_MOTION":"14.98342882","MEAN_MOTION_DOT":"0.00005262","DECAY_DATE":null,"INCLINATION":"70.0028","RCS_SIZE":"LARGE","TLE_LINE1":"1 49152U 21082Y   23021.68876010  .00005262  00000-0  44830-3 0  9995","ECCENTRICITY":"0.00028610","FILE":"3757082","TLE_LINE2":"2 49152  70.0028 256.3523 0002861 276.7307  83.3527 14.98342882 76881","OBJECT_ID":"2021-082Y","MEAN_ANOMALY":"83.3527","SEMIMAJOR_AXIS":"6950.153","CLASSIFICATION_TYPE":"U","OBJECT_TYPE":"PAYLOAD","MEAN_ELEMENT_THEORY":"SGP4","CENTER_NAME":"EARTH","EPHEMERIS_TYPE":"0","APOAPSIS":"574.006","REF_FRAME":"TEME","LAUNCH_DATE":"2021-09-14","COUNTRY_CODE":"US","GP_ID":"223575966"},{"EPOCH":"2023-01-21T16:52:25.129632","SITE":"AFWTR","REV_AT_EPOCH":"7574","ELEMENT_SET_NO":"999","NORAD_CAT_ID":"49153","ARG_OF_PERICENTER":"269.2329","PERIOD":"96.107","RA_OF_ASC_NODE":"256.3250","TIME_SYSTEM":"UTC","PERIAPSIS":"569.999","MEAN_MOTION_DDOT":"0.0000000000000","OBJECT_NAME":"STARLINK-3072","BSTAR":"0.00013741000000","MEAN_MOTION":"14.98334779","INCLINATION":"69.9992","RCS_SIZE":"LARGE","MEAN_MOTION_DOT":"0.00001547","DECAY_DATE":null,"TLE_LINE1":"1 49153U 21082Z   23021.70306863  .00001547  00000-0  13741-3 0  9992","ECCENTRICITY":"0.00029410","FILE":"3757289","SEMIMAJOR_AXIS":"6950.178","TLE_LINE2":"2 49153  69.9992 256.3250 0002941 269.2329  90.8494 14.98334779 75742","MEAN_ANOMALY":"90.8494","OBJECT_ID":"2021-082Z","CLASSIFICATION_TYPE":"U","OBJECT_TYPE":"PAYLOAD","APOAPSIS":"574.087","REF_FRAME":"TEME","LAUNCH_DATE":"2021-09-14","MEAN_ELEMENT_THEORY":"SGP4","CENTER_NAME":"EARTH","EPHEMERIS_TYPE":"0","GP_ID":"223580380","COUNTRY_CODE":"US"},{"INCLINATION":"70.0027","RCS_SIZE":"LARGE","MEAN_MOTION_DOT":"0.00005498","DECAY_DATE":null,"TLE_LINE1":"1 49154U 21082AA  23021.12951411  .00005498  00000-0  46817-3 0  9993","TIME_SYSTEM":"UTC","RA_OF_ASC_NODE":"277.7701","PERIAPSIS":"570.120","MEAN_MOTION_DDOT":"0.0000000000000","OBJECT_NAME":"STARLINK-3068","BSTAR":"0.00046817000000","MEAN_MOTION":"14.98330470","ELEMENT_SET_NO":"999","NORAD_CAT_ID":"49154","ARG_OF_PERICENTER":"271.7653","PERIOD":"96.107","EPOCH":"2023-01-21T03:06:30.019104","SITE":"AFWTR","REV_AT_EPOCH":"7625","COUNTRY_CODE":"US","GP_ID":"223558183","OBJECT_TYPE":"PAYLOAD","APOAPSIS":"573.993","REF_FRAME":"TEME","LAUNCH_DATE":"2021-09-14","MEAN_ELEMENT_THEORY":"SGP4","CENTER_NAME":"EARTH","EPHEMERIS_TYPE":"0","SEMIMAJOR_AXIS":"6950.191","TLE_LINE2":"2 49154  70.0027 277.7701 0002786 271.7653  88.3187 14.98330470 76250","OBJECT_ID":"2021-082AA","MEAN_ANOMALY":"88.3187","CLASSIFICATION_TYPE":"U","ECCENTRICITY":"0.00027860","FILE":"3756319"},{"CLASSIFICATION_TYPE":"U","TLE_LINE2":"2 49155  70.0001 257.8641 0002821 265.5807  94.5030 14.98341937 76747","OBJECT_ID":"2021-082AB","MEAN_ANOMALY":"94.5030","SEMIMAJOR_AXIS":"6950.156","FILE":"3756319","ECCENTRICITY":"0.00028210","GP_ID":"223557690","COUNTRY_CODE":"US","MEAN_ELEMENT_THEORY":"SGP4","EPHEMERIS_TYPE":"0","CENTER_NAME":"EARTH","APOAPSIS":"573.982","LAUNCH_DATE":"2021-09-14","REF_FRAME":"TEME","OBJECT_TYPE":"PAYLOAD","PERIOD":"96.106","ARG_OF_PERICENTER":"265.5807","ELEMENT_SET_NO":"999","NORAD_CAT_ID":"49155","SITE":"AFWTR","REV_AT_EPOCH":"7674","EPOCH":"2023-01-21T02:20:20.717664","TLE_LINE1":"1 49155U 21082AB  23021.09746201 -.00000507  00000-0 -34681-4 0  9994","MEAN_MOTION_DOT":"-0.00000507","DECAY_DATE":null,"INCLINATION":"70.0001","RCS_SIZE":"LARGE","BSTAR":"-0.00003468100000","MEAN_MOTION":"14.98341937","MEAN_MOTION_DDOT":"0.0000000000000","OBJECT_NAME":"STARLINK-3060","RA_OF_ASC_NODE":"257.8641","TIME_SYSTEM":"UTC","PERIAPSIS":"570.060"},{"ELEMENT_SET_NO":"999","NORAD_CAT_ID":"49156","ARG_OF_PERICENTER":"263.9096","PERIOD":"96.106","EPOCH":"2023-01-21T16:18:04.863744","SITE":"AFWTR","REV_AT_EPOCH":"7683","INCLINATION":"70.0024","RCS_SIZE":"LARGE","MEAN_MOTION_DOT":"0.00013503","DECAY_DATE":null,"TLE_LINE1":"1 49156U 21082AC  23021.67922296  .00013503  00000-0  11370-2 0  9995","RA_OF_ASC_NODE":"256.3866","TIME_SYSTEM":"UTC","PERIAPSIS":"570.299","MEAN_MOTION_DDOT":"0.0000000000000","OBJECT_NAME":"STARLINK-3085","BSTAR":"0.00113700000000","MEAN_MOTION":"14.98340338","SEMIMAJOR_AXIS":"6950.161","TLE_LINE2":"2 49156  70.0024 256.3866 0002485 263.9096  96.1780 14.98340338 76838","MEAN_ANOMALY":"96.1780","OBJECT_ID":"2021-082AC","CLASSIFICATION_TYPE":"U","ECCENTRICITY":"0.00024850","FILE":"3757119","COUNTRY_CODE":"US","GP_ID":"223576807","OBJECT_TYPE":"PAYLOAD","APOAPSIS":"573.753","REF_FRAME":"TEME","LAUNCH_DATE":"2021-09-14","MEAN_ELEMENT_THEORY":"SGP4","EPHEMERIS_TYPE":"0","CENTER_NAME":"EARTH"},{"PERIOD":"96.106","ARG_OF_PERICENTER":"259.7447","ELEMENT_SET_NO":"999","NORAD_CAT_ID":"49157","SITE":"AFWTR","REV_AT_EPOCH":"7636","EPOCH":"2023-01-21T17:24:50.544000","TLE_LINE1":"1 49157U 21082AD  23021.72558500  .00006193  00000-0  52616-3 0  9991","MEAN_MOTION_DOT":"0.00006193","DECAY_DATE":null,"INCLINATION":"70.0035","RCS_SIZE":"LARGE","BSTAR":"0.00052616000000","MEAN_MOTION":"14.98343159","MEAN_MOTION_DDOT":"0.0000000000000","OBJECT_NAME":"STARLINK-3051","TIME_SYSTEM":"UTC","RA_OF_ASC_NODE":"276.2693","PERIAPSIS":"570.021","CLASSIFICATION_TYPE":"U","TLE_LINE2":"2 49157  70.0035 276.2693 0002872 259.7447 100.3389 14.98343159 76368","OBJECT_ID":"2021-082AD","MEAN_ANOMALY":"100.3389","SEMIMAJOR_AXIS":"6950.152","FILE":"3757112","ECCENTRICITY":"0.00028720","GP_ID":"223576884","COUNTRY_CODE":"US","MEAN_ELEMENT_THEORY":"SGP4","EPHEMERIS_TYPE":"0","CENTER_NAME":"EARTH","APOAPSIS":"574.013","REF_FRAME":"TEME","LAUNCH_DATE":"2021-09-14","OBJECT_TYPE":"PAYLOAD"}];
